{
  "type": "FeatureCollection",
  "features": [
    {
      "type": "Feature",
      "properties": {
        "norad_id": 45358,
        "name": "COSMOS 2545 (760)",
        "group": "gnss",
        "lat": -17.69593568549041,
        "lon": 148.00914821846155,
        "alt_km": 19112.522929507904,
        "timestamp": "2025-12-04T17:48:40.410031+00:00",
        "meta_object_name": "COSMOS 2545 (760)",
        "meta_object_id": "2020-018A",
        "meta_epoch": "2025-12-01T04:43:25.038912",
        "meta_mean_motion": 2.13102323,
        "meta_eccentricity": 0.00119194,
        "meta_inclination": 64.4762,
        "meta_ra_of_asc_node": 319.3749,
        "meta_arg_of_pericenter": 248.338,
        "meta_mean_anomaly": 111.5456,
        "meta_ephemeris_type": 0,
        "meta_classification_type": "U",
        "meta_norad_cat_id": 45358,
        "meta_element_set_no": 999,
        "meta_rev_at_epoch": 4444,
        "meta_bstar": 0,
        "meta_mean_motion_dot": -2.8e-07,
        "meta_mean_motion_ddot": 0,
        "tle_line1": "1 45358U 20018A   25335.19681758 -.00000028  00000+0  00000+0 0  9998",
        "tle_line2": "2 45358  64.4762 319.3749 0011919 248.3380 111.5456  2.13102323 44447"
      },
      "geometry": {
        "type": "Point",
        "coordinates": [
          148.00914821846155,
          -17.69593568549041
        ]
      }
    },
    {
      "type": "Feature",
      "properties": {
        "norad_id": 45807,
        "name": "BEIDOU-3 G3 (C61)",
        "group": "gnss",
        "lat": 0.8538689565729061,
        "lon": 91.48987926830951,
        "alt_km": 35784.06011285998,
        "timestamp": "2025-12-04T17:48:40.410043+00:00",
        "meta_object_name": "BEIDOU-3 G3 (C61)",
        "meta_object_id": "2020-040A",
        "meta_epoch": "2025-12-04T07:24:07.520832",
        "meta_mean_motion": 1.00266116,
        "meta_eccentricity": 0.00050455,
        "meta_inclination": 1.9693,
        "meta_ra_of_asc_node": 66.5388,
        "meta_arg_of_pericenter": 304.3272,
        "meta_mean_anomaly": 284.0423,
        "meta_ephemeris_type": 0,
        "meta_classification_type": "U",
        "meta_norad_cat_id": 45807,
        "meta_element_set_no": 999,
        "meta_rev_at_epoch": 2011,
        "meta_bstar": 0,
        "meta_mean_motion_dot": -3.39e-06,
        "meta_mean_motion_ddot": 0,
        "tle_line1": "1 45807U 20040A   25338.30842038 -.00000339  00000+0  00000+0 0  9993",
        "tle_line2": "2 45807   1.9693  66.5388 0005045 304.3272 284.0423  1.00266116 20115"
      },
      "geometry": {
        "type": "Point",
        "coordinates": [
          91.48987926830951,
          0.8538689565729061
        ]
      }
    },
    {
      "type": "Feature",
      "properties": {
        "norad_id": 45854,
        "name": "GPS BIII-3  (PRN 23)",
        "group": "gnss",
        "lat": -24.36062683778503,
        "lon": 19.112862199556872,
        "alt_km": 20282.16299924939,
        "timestamp": "2025-12-04T17:48:40.410056+00:00",
        "meta_object_name": "GPS BIII-3  (PRN 23)",
        "meta_object_id": "2020-041A",
        "meta_epoch": "2025-12-03T06:48:38.769120",
        "meta_mean_motion": 2.00561684,
        "meta_eccentricity": 0.0060262,
        "meta_inclination": 56.5402,
        "meta_ra_of_asc_node": 36.5545,
        "meta_arg_of_pericenter": 203.0015,
        "meta_mean_anomaly": 153.8862,
        "meta_ephemeris_type": 0,
        "meta_classification_type": "U",
        "meta_norad_cat_id": 45854,
        "meta_element_set_no": 999,
        "meta_rev_at_epoch": 4010,
        "meta_bstar": 0,
        "meta_mean_motion_dot": -6.6e-07,
        "meta_mean_motion_ddot": 0,
        "tle_line1": "1 45854U 20041A   25337.28378205 -.00000066  00000+0  00000+0 0  9999",
        "tle_line2": "2 45854  56.5402  36.5545 0060262 203.0015 153.8862  2.00561684 40105"
      },
      "geometry": {
        "type": "Point",
        "coordinates": [
          19.112862199556872,
          -24.36062683778503
        ]
      }
    },
    {
      "type": "Feature",
      "properties": {
        "norad_id": 46114,
        "name": "GALAXY 30 (WAAS/PRN 135)",
        "group": "gnss",
        "lat": -0.039995203504728884,
        "lon": -144.06062292433816,
        "alt_km": 35779.006011336765,
        "timestamp": "2025-12-04T17:48:40.410067+00:00",
        "meta_object_name": "GALAXY 30 (WAAS/PRN 135)",
        "meta_object_id": "2020-056C",
        "meta_epoch": "2025-12-04T06:16:58.952352",
        "meta_mean_motion": 1.0026698,
        "meta_eccentricity": 0.00024727,
        "meta_inclination": 0.0157,
        "meta_ra_of_asc_node": 322.8496,
        "meta_arg_of_pericenter": 289.8453,
        "meta_mean_anomaly": 149.8938,
        "meta_ephemeris_type": 0,
        "meta_classification_type": "U",
        "meta_norad_cat_id": 46114,
        "meta_element_set_no": 999,
        "meta_rev_at_epoch": 1933,
        "meta_bstar": 0,
        "meta_mean_motion_dot": 5.3e-07,
        "meta_mean_motion_ddot": 0,
        "tle_line1": "1 46114U 20056C   25338.26179343  .00000053  00000+0  00000+0 0  9991",
        "tle_line2": "2 46114   0.0157 322.8496 0002472 289.8453 149.8938  1.00266980 19339"
      },
      "geometry": {
        "type": "Point",
        "coordinates": [
          -144.06062292433816,
          -0.039995203504728884
        ]
      }
    },
    {
      "type": "Feature",
      "properties": {
        "norad_id": 46805,
        "name": "COSMOS 2547 (705K)",
        "group": "gnss",
        "lat": 48.14224469398945,
        "lon": -129.005192121845,
        "alt_km": 19140.60400602769,
        "timestamp": "2025-12-04T17:48:40.410079+00:00",
        "meta_object_name": "COSMOS 2547 (705K)",
        "meta_object_id": "2020-075A",
        "meta_epoch": "2025-11-30T21:58:22.930752",
        "meta_mean_motion": 2.13099889,
        "meta_eccentricity": 0.00063143,
        "meta_inclination": 64.5957,
        "meta_ra_of_asc_node": 199.0914,
        "meta_arg_of_pericenter": 229.6069,
        "meta_mean_anomaly": 130.4292,
        "meta_ephemeris_type": 0,
        "meta_classification_type": "U",
        "meta_norad_cat_id": 46805,
        "meta_element_set_no": 999,
        "meta_rev_at_epoch": 3968,
        "meta_bstar": 0,
        "meta_mean_motion_dot": 9.8e-07,
        "meta_mean_motion_ddot": 0,
        "tle_line1": "1 46805U 20075A   25334.91554318  .00000098  00000+0  00000+0 0  9995",
        "tle_line2": "2 46805  64.5957 199.0914 0006314 229.6069 130.4292  2.13099889 39688"
      },
      "geometry": {
        "type": "Point",
        "coordinates": [
          -129.005192121845,
          48.14224469398945
        ]
      }
    },
    {
      "type": "Feature",
      "properties": {
        "norad_id": 46826,
        "name": "GPS BIII-4  (PRN 14)",
        "group": "gnss",
        "lat": -43.756260612171616,
        "lon": 174.64521734850203,
        "alt_km": 20207.227919977417,
        "timestamp": "2025-12-04T17:48:40.410089+00:00",
        "meta_object_name": "GPS BIII-4  (PRN 14)",
        "meta_object_id": "2020-078A",
        "meta_epoch": "2025-11-12T03:01:29.190720",
        "meta_mean_motion": 2.00567032,
        "meta_eccentricity": 0.0063911,
        "meta_inclination": 54.0223,
        "meta_ra_of_asc_node": 219.5836,
        "meta_arg_of_pericenter": 203.4986,
        "meta_mean_anomaly": 326.7754,
        "meta_ephemeris_type": 0,
        "meta_classification_type": "U",
        "meta_norad_cat_id": 46826,
        "meta_element_set_no": 999,
        "meta_rev_at_epoch": 3715,
        "meta_bstar": 0,
        "meta_mean_motion_dot": -3.4e-07,
        "meta_mean_motion_ddot": 0,
        "tle_line1": "1 46826U 20078A   25316.12603230 -.00000034  00000+0  00000+0 0  9993",
        "tle_line2": "2 46826  54.0223 219.5836 0063911 203.4986 326.7754  2.00567032 37155"
      },
      "geometry": {
        "type": "Point",
        "coordinates": [
          174.64521734850203,
          -43.756260612171616
        ]
      }
    },
    {
      "type": "Feature",
      "properties": {
        "norad_id": 48859,
        "name": "GPS BIII-5  (PRN 11)",
        "group": "gnss",
        "lat": 41.55034660282182,
        "lon": 122.31701335586767,
        "alt_km": 20197.076529064994,
        "timestamp": "2025-12-04T17:48:40.410100+00:00",
        "meta_object_name": "GPS BIII-5  (PRN 11)",
        "meta_object_id": "2021-054A",
        "meta_epoch": "2025-11-30T17:12:22.002912",
        "meta_mean_motion": 2.00553932,
        "meta_eccentricity": 0.0024653,
        "meta_inclination": 55.2606,
        "meta_ra_of_asc_node": 340.4377,
        "meta_arg_of_pericenter": 232.9477,
        "meta_mean_anomaly": 227.2059,
        "meta_ephemeris_type": 0,
        "meta_classification_type": "U",
        "meta_norad_cat_id": 48859,
        "meta_element_set_no": 999,
        "meta_rev_at_epoch": 3277,
        "meta_bstar": 0,
        "meta_mean_motion_dot": -5.5e-07,
        "meta_mean_motion_ddot": 0,
        "tle_line1": "1 48859U 21054A   25334.71692133 -.00000055  00000+0  00000+0 0  9994",
        "tle_line2": "2 48859  55.2606 340.4377 0024653 232.9477 227.2059  2.00553932 32777"
      },
      "geometry": {
        "type": "Point",
        "coordinates": [
          122.31701335586767,
          41.55034660282182
        ]
      }
    }
  ]
}